CCSDS_OMM_VERS = 2.0
CREATION_DATE  = 
ORIGINATOR     = 

OBJECT_NAME    = STARLINK-35920
OBJECT_ID      = 2025-271G
CENTER_NAME    = EARTH
REF_FRAME      = TEME
TIME_SYSTEM    = UTC
MEAN_ELEMENT_THEORY = SGP/SGP4

EPOCH          = 2025-12-03T22:00:03.000096
MEAN_MOTION    = 15.82724781
ECCENTRICITY   = .0000597
INCLINATION    = 53.1569
RA_OF_ASC_NODE = 230.5694
ARG_OF_PERICENTER = 84.8428
MEAN_ANOMALY   = 233.5113

EPHEMERIS_TYPE = 0
CLASSIFICATION_TYPE = U
NORAD_CAT_ID   = 66623
ELEMENT_SET_NO = 999
REV_AT_EPOCH   = 282
BSTAR          = -.82960358E-2
MEAN_MOTION_DOT = -.1566498E-1
MEAN_MOTION_DDOT = 0

CCSDS_OMM_VERS = 2.0
CREATION_DATE  = 
ORIGINATOR     = 

OBJECT_NAME    = STARLINK-35927
OBJECT_ID      = 2025-271H
CENTER_NAME    = EARTH
REF_FRAME      = TEME
TIME_SYSTEM    = UTC
MEAN_ELEMENT_THEORY = SGP/SGP4

EPOCH          = 2025-12-03T22:00:03.000096
MEAN_MOTION    = 15.82717737
ECCENTRICITY   = .00005493
INCLINATION    = 53.1570
RA_OF_ASC_NODE = 230.5735
ARG_OF_PERICENTER = 94.1991
MEAN_ANOMALY   = 222.1230

EPHEMERIS_TYPE = 0
CLASSIFICATION_TYPE = U
NORAD_CAT_ID   = 66624
ELEMENT_SET_NO = 999
REV_AT_EPOCH   = 282
BSTAR          = -.82623757E-2
MEAN_MOTION_DOT = -.1560441E-1
MEAN_MOTION_DDOT = 0

CCSDS_OMM_VERS = 2.0
CREATION_DATE  = 
ORIGINATOR     = 

OBJECT_NAME    = STARLINK-35929
OBJECT_ID      = 2025-271J
CENTER_NAME    = EARTH
REF_FRAME      = TEME
TIME_SYSTEM    = UTC
MEAN_ELEMENT_THEORY = SGP/SGP4

EPOCH          = 2025-12-03T22:00:03.000096
MEAN_MOTION    = 15.82694931
ECCENTRICITY   = .00005828
INCLINATION    = 53.1569
RA_OF_ASC_NODE = 230.5641
ARG_OF_PERICENTER = 87.6996
MEAN_ANOMALY   = 233.1642

EPHEMERIS_TYPE = 0
CLASSIFICATION_TYPE = U
NORAD_CAT_ID   = 66625
ELEMENT_SET_NO = 999
REV_AT_EPOCH   = 282
BSTAR          = -.83702872E-2
MEAN_MOTION_DOT = -.1576783E-1
MEAN_MOTION_DDOT = 0

CCSDS_OMM_VERS = 2.0
CREATION_DATE  = 
ORIGINATOR     = 

OBJECT_NAME    = STARLINK-35902
OBJECT_ID      = 2025-271K
CENTER_NAME    = EARTH
REF_FRAME      = TEME
TIME_SYSTEM    = UTC
MEAN_ELEMENT_THEORY = SGP/SGP4

EPOCH          = 2025-12-03T22:00:03.000096
MEAN_MOTION    = 15.82669849
ECCENTRICITY   = .00005653
INCLINATION    = 53.1568
RA_OF_ASC_NODE = 230.5590
ARG_OF_PERICENTER = 92.2188
MEAN_ANOMALY   = 231.1005

EPHEMERIS_TYPE = 0
CLASSIFICATION_TYPE = U
NORAD_CAT_ID   = 66626
ELEMENT_SET_NO = 999
REV_AT_EPOCH   = 282
BSTAR          = -.84486035E-2
MEAN_MOTION_DOT = -.1587993E-1
MEAN_MOTION_DDOT = 0

CCSDS_OMM_VERS = 2.0
CREATION_DATE  = 
ORIGINATOR     = 

OBJECT_NAME    = STARLINK-35904
OBJECT_ID      = 2025-271L
CENTER_NAME    = EARTH
REF_FRAME      = TEME
TIME_SYSTEM    = UTC
MEAN_ELEMENT_THEORY = SGP/SGP4

EPOCH          = 2025-12-03T22:00:03.000096
MEAN_MOTION    = 15.82638382
ECCENTRICITY   = .00005955
INCLINATION    = 53.1566
RA_OF_ASC_NODE = 230.5534
ARG_OF_PERICENTER = 83.1821
MEAN_ANOMALY   = 242.6597

EPHEMERIS_TYPE = 0
CLASSIFICATION_TYPE = U
NORAD_CAT_ID   = 66627
ELEMENT_SET_NO = 999
REV_AT_EPOCH   = 266
BSTAR          = -.85304494E-2
MEAN_MOTION_DOT = -.1599337E-1
MEAN_MOTION_DDOT = 0

CCSDS_OMM_VERS = 2.0
CREATION_DATE  = 
ORIGINATOR     = 

OBJECT_NAME    = STARLINK-35862
OBJECT_ID      = 2025-271M
CENTER_NAME    = EARTH
REF_FRAME      = TEME
TIME_SYSTEM    = UTC
MEAN_ELEMENT_THEORY = SGP/SGP4

EPOCH          = 2025-12-03T22:00:03.000096
MEAN_MOTION    = 15.82653422
ECCENTRICITY   = .00005497
INCLINATION    = 53.1568
RA_OF_ASC_NODE = 230.5490
ARG_OF_PERICENTER = 92.2636
MEAN_ANOMALY   = 235.8014

EPHEMERIS_TYPE = 0
CLASSIFICATION_TYPE = U
NORAD_CAT_ID   = 66628
ELEMENT_SET_NO = 999
REV_AT_EPOCH   = 282
BSTAR          = -.86771483E-2
MEAN_MOTION_DOT = -.1624227E-1
MEAN_MOTION_DDOT = 0

CCSDS_OMM_VERS = 2.0
CREATION_DATE  = 
ORIGINATOR     = 

OBJECT_NAME    = STARLINK-35956
OBJECT_ID      = 2025-271N
CENTER_NAME    = EARTH
REF_FRAME      = TEME
TIME_SYSTEM    = UTC
MEAN_ELEMENT_THEORY = SGP/SGP4

EPOCH          = 2025-12-03T22:00:03.000096
MEAN_MOTION    = 15.82616582
ECCENTRICITY   = .00006475
INCLINATION    = 53.1567
RA_OF_ASC_NODE = 230.5441
ARG_OF_PERICENTER = 96.8705
MEAN_ANOMALY   = 233.5782

EPHEMERIS_TYPE = 0
CLASSIFICATION_TYPE = U
NORAD_CAT_ID   = 66629
ELEMENT_SET_NO = 999
REV_AT_EPOCH   = 282
BSTAR          = -.87001305E-2
MEAN_MOTION_DOT = -.1625563E-1
MEAN_MOTION_DDOT = 0

CCSDS_OMM_VERS = 2.0
CREATION_DATE  = 
ORIGINATOR     = 

OBJECT_NAME    = STARLINK-35949
OBJECT_ID      = 2025-271P
CENTER_NAME    = EARTH
REF_FRAME      = TEME
TIME_SYSTEM    = UTC
MEAN_ELEMENT_THEORY = SGP/SGP4

EPOCH          = 2025-12-03T22:00:03.000096
MEAN_MOTION    = 15.82613148
ECCENTRICITY   = .00005033
INCLINATION    = 53.1565
RA_OF_ASC_NODE = 230.5393
ARG_OF_PERICENTER = 91.0533
MEAN_ANOMALY   = 241.5220

EPHEMERIS_TYPE = 0
CLASSIFICATION_TYPE = U
NORAD_CAT_ID   = 66630
ELEMENT_SET_NO = 999
REV_AT_EPOCH   = 282
BSTAR          = -.8723624E-2
MEAN_MOTION_DOT = -.1629035E-1
MEAN_MOTION_DDOT = 0

CCSDS_OMM_VERS = 2.0
CREATION_DATE  = 
ORIGINATOR     = 

OBJECT_NAME    = STARLINK-35965
OBJECT_ID      = 2025-271Q
CENTER_NAME    = EARTH
REF_FRAME      = TEME
TIME_SYSTEM    = UTC
MEAN_ELEMENT_THEORY = SGP/SGP4

EPOCH          = 2025-12-03T22:00:03.000096
MEAN_MOTION    = 15.82651013
ECCENTRICITY   = .00005423
INCLINATION    = 53.1565
RA_OF_ASC_NODE = 230.5355
ARG_OF_PERICENTER = 93.4052
MEAN_ANOMALY   = 241.0624

EPHEMERIS_TYPE = 0
CLASSIFICATION_TYPE = U
NORAD_CAT_ID   = 66631
ELEMENT_SET_NO = 999
REV_AT_EPOCH   = 282
BSTAR          = -.88263927E-2
MEAN_MOTION_DOT = -.1648276E-1
MEAN_MOTION_DDOT = 0

CCSDS_OMM_VERS = 2.0
CREATION_DATE  = 
ORIGINATOR     = 

OBJECT_NAME    = STARLINK-35973
OBJECT_ID      = 2025-271R
CENTER_NAME    = EARTH
REF_FRAME      = TEME
TIME_SYSTEM    = UTC
MEAN_ELEMENT_THEORY = SGP/SGP4

EPOCH          = 2025-12-03T22:00:03.000096
MEAN_MOTION    = 15.82609983
ECCENTRICITY   = .00005271
INCLINATION    = 53.1564
RA_OF_ASC_NODE = 230.5304
ARG_OF_PERICENTER = 83.7477
MEAN_ANOMALY   = 253.0276

EPHEMERIS_TYPE = 0
CLASSIFICATION_TYPE = U
NORAD_CAT_ID   = 66632
ELEMENT_SET_NO = 999
REV_AT_EPOCH   = 276
BSTAR          = -.87842856E-2
MEAN_MOTION_DOT = -.1638669E-1
MEAN_MOTION_DDOT = 0

CCSDS_OMM_VERS = 2.0
CREATION_DATE  = 
ORIGINATOR     = 

OBJECT_NAME    = STARLINK-35948
OBJECT_ID      = 2025-271S
CENTER_NAME    = EARTH
REF_FRAME      = TEME
TIME_SYSTEM    = UTC
MEAN_ELEMENT_THEORY = SGP/SGP4

EPOCH          = 2025-12-03T22:00:03.000096
MEAN_MOTION    = 15.82606741
ECCENTRICITY   = .00006968
INCLINATION    = 53.1561
RA_OF_ASC_NODE = 230.5255
ARG_OF_PERICENTER = 106.1227
MEAN_ANOMALY   = 232.9460

EPHEMERIS_TYPE = 0
CLASSIFICATION_TYPE = U
NORAD_CAT_ID   = 66633
ELEMENT_SET_NO = 999
REV_AT_EPOCH   = 282
BSTAR          = -.89079656E-2
MEAN_MOTION_DOT = -.1658558E-1
MEAN_MOTION_DDOT = 0

CCSDS_OMM_VERS = 2.0
CREATION_DATE  = 
ORIGINATOR     = 

OBJECT_NAME    = STARLINK-35967
OBJECT_ID      = 2025-271T
CENTER_NAME    = EARTH
REF_FRAME      = TEME
TIME_SYSTEM    = UTC
MEAN_ELEMENT_THEORY = SGP/SGP4

EPOCH          = 2025-12-03T22:00:03.000096
MEAN_MOTION    = 15.82605401
ECCENTRICITY   = .00005616
INCLINATION    = 53.1561
RA_OF_ASC_NODE = 230.5210
ARG_OF_PERICENTER = 96.5732
MEAN_ANOMALY   = 244.5492

EPHEMERIS_TYPE = 0
CLASSIFICATION_TYPE = U
NORAD_CAT_ID   = 66634
ELEMENT_SET_NO = 999
REV_AT_EPOCH   = 275
BSTAR          = -.89096789E-2
MEAN_MOTION_DOT = -.1658634E-1
MEAN_MOTION_DDOT = 0

