STARLINK-35920          
1 66623U 25271G   25337.91670139 -.01566498  00000+0 -82960-2 0  9993
2 66623  53.1569 230.5694 0000597  84.8428 233.5113 15.82724781  2823
STARLINK-35927          
1 66624U 25271H   25337.91670139 -.01560441  00000+0 -82624-2 0  9993
2 66624  53.1570 230.5735 0000549  94.1991 222.1230 15.82717737  2825
STARLINK-35929          
1 66625U 25271J   25337.91670139 -.01576783  00000+0 -83703-2 0  9999
2 66625  53.1569 230.5641 0000582  87.6996 233.1642 15.82694931  2828
STARLINK-35902          
1 66626U 25271K   25337.91670139 -.01587993  00000+0 -84486-2 0  9994
2 66626  53.1568 230.5590 0000565  92.2188 231.1005 15.82669849  2828
STARLINK-35904          
1 66627U 25271L   25337.91670139 -.01599337  00000+0 -85304-2 0  9990
2 66627  53.1566 230.5534 0000595  83.1821 242.6597 15.82638382  2664
STARLINK-35862          
1 66628U 25271M   25337.91670139 -.01624227  00000+0 -86771-2 0  9997
2 66628  53.1568 230.5490 0000549  92.2636 235.8014 15.82653422  2820
STARLINK-35956          
1 66629U 25271N   25337.91670139 -.01625563  00000+0 -87001-2 0  9999
2 66629  53.1567 230.5441 0000647  96.8705 233.5782 15.82616582  2825
STARLINK-35949          
1 66630U 25271P   25337.91670139 -.01629035  00000+0 -87236-2 0  9999
2 66630  53.1565 230.5393 0000503  91.0533 241.5220 15.82613148  2829
STARLINK-35965          
1 66631U 25271Q   25337.91670139 -.01648276  00000+0 -88264-2 0  9990
2 66631  53.1565 230.5355 0000542  93.4052 241.0624 15.82651013  2829
STARLINK-35973          
1 66632U 25271R   25337.91670139 -.01638669  00000+0 -87843-2 0  9998
2 66632  53.1564 230.5304 0000527  83.7477 253.0276 15.82609983  2767
STARLINK-35948          
1 66633U 25271S   25337.91670139 -.01658558  00000+0 -89080-2 0  9993
2 66633  53.1561 230.5255 0000696 106.1227 232.9460 15.82606741  2827
STARLINK-35967          
1 66634U 25271T   25337.91670139 -.01658634  00000+0 -89097-2 0  9997
2 66634  53.1561 230.5210 0000561  96.5732 244.5492 15.82605401  2751
